{
  "type": "FeatureCollection",
  "features": [
    {
      "type": "Feature",
      "properties": {
        "norad_id": 55973,
        "name": "TIANMU-1 03",
        "group": "weather",
        "lat": 45.376538114056096,
        "lon": -13.805457753288486,
        "alt_km": 439.24443561288535,
        "timestamp": "2025-12-21T14:40:47.553400+00:00",
        "meta_object_name": "TIANMU-1 03",
        "meta_object_id": "2023-039A",
        "meta_epoch": "2025-12-21T06:18:32.852736",
        "meta_mean_motion": 15.41153506,
        "meta_eccentricity": 0.00039896,
        "meta_inclination": 97.5106,
        "meta_ra_of_asc_node": 158.1537,
        "meta_arg_of_pericenter": 36.6827,
        "meta_mean_anomaly": 323.4692,
        "meta_ephemeris_type": 0,
        "meta_classification_type": "U",
        "meta_norad_cat_id": 55973,
        "meta_element_set_no": 999,
        "meta_rev_at_epoch": 15337,
        "meta_bstar": 0.00030059364,
        "meta_mean_motion_dot": 0.00012378,
        "meta_mean_motion_ddot": 0,
        "tle_line1": "1 55973U 23039A   25355.26288024  .00012378  00000+0  30059-3 0  9998",
        "tle_line2": "2 55973  97.5106 158.1537 0003989  36.6827 323.4692 15.41153506153379"
      },
      "geometry": {
        "type": "Point",
        "coordinates": [
          -13.805457753288486,
          45.376538114056096
        ]
      }
    },
    {
      "type": "Feature",
      "properties": {
        "norad_id": 55974,
        "name": "TIANMU-1 04",
        "group": "weather",
        "lat": -76.51376601183732,
        "lon": -55.641631144238225,
        "alt_km": 451.05973772221205,
        "timestamp": "2025-12-21T14:40:47.553411+00:00",
        "meta_object_name": "TIANMU-1 04",
        "meta_object_id": "2023-039B",
        "meta_epoch": "2025-12-21T05:46:15.415680",
        "meta_mean_motion": 15.41494271,
        "meta_eccentricity": 0.00046135,
        "meta_inclination": 97.5038,
        "meta_ra_of_asc_node": 157.3182,
        "meta_arg_of_pericenter": 30.5573,
        "meta_mean_anomaly": 329.5941,
        "meta_ephemeris_type": 0,
        "meta_classification_type": "U",
        "meta_norad_cat_id": 55974,
        "meta_element_set_no": 999,
        "meta_rev_at_epoch": 15337,
        "meta_bstar": 0.00029364909,
        "meta_mean_motion_dot": 0.00012228,
        "meta_mean_motion_ddot": 0,
        "tle_line1": "1 55974U 23039B   25355.24045620  .00012228  00000+0  29365-3 0  9992",
        "tle_line2": "2 55974  97.5038 157.3182 0004613  30.5573 329.5941 15.41494271153378"
      },
      "geometry": {
        "type": "Point",
        "coordinates": [
          -55.641631144238225,
          -76.51376601183732
        ]
      }
    },
    {
      "type": "Feature",
      "properties": {
        "norad_id": 55975,
        "name": "TIANMU-1 05",
        "group": "weather",
        "lat": -78.71381094777617,
        "lon": -160.43831294178918,
        "alt_km": 452.14635634194747,
        "timestamp": "2025-12-21T14:40:47.553421+00:00",
        "meta_object_name": "TIANMU-1 05",
        "meta_object_id": "2023-039C",
        "meta_epoch": "2025-12-21T05:41:00.309696",
        "meta_mean_motion": 15.41110323,
        "meta_eccentricity": 0.00040874,
        "meta_inclination": 97.5085,
        "meta_ra_of_asc_node": 157.8072,
        "meta_arg_of_pericenter": 55.2423,
        "meta_mean_anomaly": 304.9207,
        "meta_ephemeris_type": 0,
        "meta_classification_type": "U",
        "meta_norad_cat_id": 55975,
        "meta_element_set_no": 999,
        "meta_rev_at_epoch": 15335,
        "meta_bstar": 0.000292467,
        "meta_mean_motion_dot": 0.00012023,
        "meta_mean_motion_ddot": 0,
        "tle_line1": "1 55975U 23039C   25355.23680914  .00012023  00000+0  29247-3 0  9995",
        "tle_line2": "2 55975  97.5085 157.8072 0004087  55.2423 304.9207 15.41110323153350"
      },
      "geometry": {
        "type": "Point",
        "coordinates": [
          -160.43831294178918,
          -78.71381094777617
        ]
      }
    },
    {
      "type": "Feature",
      "properties": {
        "norad_id": 55976,
        "name": "TIANMU-1 06",
        "group": "weather",
        "lat": -67.19574622541703,
        "lon": -39.62066890649957,
        "alt_km": 451.6006759132697,
        "timestamp": "2025-12-21T14:40:47.553431+00:00",
        "meta_object_name": "TIANMU-1 06",
        "meta_object_id": "2023-039D",
        "meta_epoch": "2025-12-21T05:48:58.717728",
        "meta_mean_motion": 15.4154414,
        "meta_eccentricity": 0.00043699,
        "meta_inclination": 97.5096,
        "meta_ra_of_asc_node": 158.285,
        "meta_arg_of_pericenter": 49.4467,
        "meta_mean_anomaly": 310.716,
        "meta_ephemeris_type": 0,
        "meta_classification_type": "U",
        "meta_norad_cat_id": 55976,
        "meta_element_set_no": 999,
        "meta_rev_at_epoch": 15337,
        "meta_bstar": 0.00025906138,
        "meta_mean_motion_dot": 0.00010793,
        "meta_mean_motion_ddot": 0,
        "tle_line1": "1 55976U 23039D   25355.24234627  .00010793  00000+0  25906-3 0  9993",
        "tle_line2": "2 55976  97.5096 158.2850 0004369  49.4467 310.7160 15.41544140153371"
      },
      "geometry": {
        "type": "Point",
        "coordinates": [
          -39.62066890649957,
          -67.19574622541703
        ]
      }
    },
    {
      "type": "Feature",
      "properties": {
        "norad_id": 56232,
        "name": "FENGYUN 3G",
        "group": "weather",
        "lat": 47.7918237502319,
        "lon": -110.51579340268637,
        "alt_km": 400.39503834517745,
        "timestamp": "2025-12-21T14:40:47.553442+00:00",
        "meta_object_name": "FENGYUN 3G",
        "meta_object_id": "2023-055A",
        "meta_epoch": "2025-12-21T00:28:08.179104",
        "meta_mean_motion": 15.54101583,
        "meta_eccentricity": 0.00092866,
        "meta_inclination": 49.9915,
        "meta_ra_of_asc_node": 184.7126,
        "meta_arg_of_pericenter": 185.9215,
        "meta_mean_anomaly": 174.1645,
        "meta_ephemeris_type": 0,
        "meta_classification_type": "U",
        "meta_norad_cat_id": 56232,
        "meta_element_set_no": 999,
        "meta_rev_at_epoch": 15231,
        "meta_bstar": 0.00036063279,
        "meta_mean_motion_dot": 0.00023517,
        "meta_mean_motion_ddot": 0,
        "tle_line1": "1 56232U 23055A   25355.01953911  .00023517  00000+0  36063-3 0  9990",
        "tle_line2": "2 56232  49.9915 184.7126 0009286 185.9215 174.1645 15.54101583152315"
      },
      "geometry": {
        "type": "Point",
        "coordinates": [
          -110.51579340268637,
          47.7918237502319
        ]
      }
    },
    {
      "type": "Feature",
      "properties": {
        "norad_id": 57166,
        "name": "METEOR-M2 3",
        "group": "weather",
        "lat": -16.564121067860263,
        "lon": 51.5865178657347,
        "alt_km": 814.101618211791,
        "timestamp": "2025-12-21T14:40:47.553455+00:00",
        "meta_object_name": "METEOR-M2 3",
        "meta_object_id": "2023-091A",
        "meta_epoch": "2025-12-21T06:19:36.321312",
        "meta_mean_motion": 14.24027034,
        "meta_eccentricity": 0.00034372,
        "meta_inclination": 98.6365,
        "meta_ra_of_asc_node": 48.6537,
        "meta_arg_of_pericenter": 343.0426,
        "meta_mean_anomaly": 17.0638,
        "meta_ephemeris_type": 0,
        "meta_classification_type": "U",
        "meta_norad_cat_id": 57166,
        "meta_element_set_no": 999,
        "meta_rev_at_epoch": 12919,
        "meta_bstar": 2.0131044e-05,
        "meta_mean_motion_dot": 3e-08,
        "meta_mean_motion_ddot": 0,
        "tle_line1": "1 57166U 23091A   25355.26361483  .00000003  00000+0  20131-4 0  9996",
        "tle_line2": "2 57166  98.6365  48.6537 0003437 343.0426  17.0638 14.24027034129190"
      },
      "geometry": {
        "type": "Point",
        "coordinates": [
          51.5865178657347,
          -16.564121067860263
        ]
      }
    },
    {
      "type": "Feature",
      "properties": {
        "norad_id": 57399,
        "name": "TIANMU-1 07",
        "group": "weather",
        "lat": -68.58982736994915,
        "lon": -153.77976731425184,
        "alt_km": 492.0714490955852,
        "timestamp": "2025-12-21T14:40:47.553465+00:00",
        "meta_object_name": "TIANMU-1 07",
        "meta_object_id": "2023-101A",
        "meta_epoch": "2025-12-21T05:43:57.948960",
        "meta_mean_motion": 15.28182883,
        "meta_eccentricity": 0.00052645,
        "meta_inclination": 97.2864,
        "meta_ra_of_asc_node": 44.9014,
        "meta_arg_of_pericenter": 60.0349,
        "meta_mean_anomaly": 300.1413,
        "meta_ephemeris_type": 0,
        "meta_classification_type": "U",
        "meta_norad_cat_id": 57399,
        "meta_element_set_no": 999,
        "meta_rev_at_epoch": 13445,
        "meta_bstar": 0.00020825452,
        "meta_mean_motion_dot": 5.649e-05,
        "meta_mean_motion_ddot": 0,
        "tle_line1": "1 57399U 23101A   25355.23886515  .00005649  00000+0  20825-3 0  9991",
        "tle_line2": "2 57399  97.2864  44.9014 0005264  60.0349 300.1413 15.28182883134457"
      },
      "geometry": {
        "type": "Point",
        "coordinates": [
          -153.77976731425184,
          -68.58982736994915
        ]
      }
    }
  ]
}